CASSIOPE-1
1 39265U 13055A   24354.11645718  .00034719  00000-0  62758-3 0  9995
2 39265  80.9475 347.8345 0444513  47.0859 316.6765 14.84143932585661
D-STAR ONE PHOENIX
1 43188U 18014J   24353.71787502  .00008287  00000-0  53278-3 0  9995
2 43188  97.5779 252.6980 0012486  91.5233 268.7426 15.08600917376284
S-NET D
1 43186U 18014G   24353.71697741  .00008233  00000-0  52951-3 0  9996
2 43186  97.5766 252.6052 0011812  94.6472 265.6106 15.08597605376289
TEN-KOH
1 43677U 18084G   24354.12865928  .00006119  00000-0  51324-3 0  9992
2 43677  98.0795 153.7063 0014982 122.0489 238.2190 14.98677904334394
STARS-AO
1 43679U 18084J   24352.92818653  .00011692  00000-0  78208-3 0  9995
2 43679  98.0665 164.8337 0002232 200.2353 159.8785 15.07119314334893
KAIDUN-1
1 41915U 17002C   24354.17539445  .00037008  00000-0  85875-3 0  9990
2 41915  97.1813  17.5996 0002976 305.1645  54.9324 15.42291053439258
CAS-4B (ZHUHAI-1 02)
1 42759U 17034B   24354.16367269  .00038580  00000-0  88850-3 0  9996
2 42759  43.0126 251.8964 0014642 178.0844 182.0072 15.41842412415810
CAS-4A (ZHUHAI-1 01)
1 42761U 17034D   24354.14312551  .00038590  00000-0  87962-3 0  9995
2 42761  43.0162 250.1354 0015729 185.2662 174.8032 15.42132703415825
EAGLESAT-1
1 43018U 17073F   24353.90329551  .00055224  00000-0  18277-2 0  9990
2 43018  97.5661 237.6690 0134006 349.6430  10.2049 15.22834614384038
LUOJIA-1 01
1 43485U 18048B   24354.18481873  .00004924  00000-0  60304-3 0  9998
2 43485  97.8606  69.8703 0010956 107.4729 252.7683 14.83587010353276
DIWATA-2B (PO-101)
1 43678U 18084H   24354.14420747  .00004010  00000-0  35470-3 0  9993
2 43678  98.0871 158.0084 0009936 132.8435 227.3622 14.96879747334570
ESHAIL-2
1 43700U 18090A   24353.60259377  .00000149  00000-0  00000+0 0  9991
2 43700   0.0176  14.7546 0002609 291.2236  24.4422  1.00272977 22455
K2SAT
1 43761U 18099D   24354.09713296  .00005783  00000-0  43874-3 0  9995
2 43761  97.4953  42.6799 0012864  45.5596 314.6680 15.02529227330135
AISTECHSAT-2
1 43768U 18099L   24353.90573794  .00009533  00000-0  63936-3 0  9996
2 43768  97.5098  43.2177 0006122  31.1535 329.0054 15.07040952329900
SNUSAT-2
1 43782U 18099AA  24353.67394173  .00010769  00000-0  66254-3 0  9997
2 43782  97.4885  46.0926 0014044  36.7742 323.4448 15.10116275330368
ITASAT-1
1 43786U 18099AE  24354.11805197  .00009891  00000-0  62653-3 0  9997
2 43786  97.4842  46.4695 0016934  81.6958 278.6190 15.09036160330413
IRVINE02
1 43789U 18099AH  24353.17400183  .00033790  00000-0  14126-2 0  9997
2 43789  97.4947  53.8313 0012624  40.5390 319.6785 15.23454778330485
EAGLET-1
1 43790U 18099AJ  24353.94288225  .00007339  00000-0  50147-3 0  9999
2 43790  97.5044  46.6809 0014384  64.6825 295.5891 15.06362376330057
ESEO
1 43792U 18099AL  24354.12959361  .00003460  00000-0  27249-3 0  9996
2 43792  97.4814  42.2616 0009277  34.9327 325.2505 15.01394259329931
CSIM-FD
1 43793U 18099AM  24353.13314025  .00055287  00000-0  17081-2 0  9995
2 43793  97.5104  58.0539 0008492  29.5240 330.6480 15.33305575330770
HIBER-2
1 43774U 18099S   24353.68054903  .00027768  00000-0  11658-2 0  9997
2 43774  97.5175  54.8933 0007622  35.0578 325.1159 15.23400473330739
MINXSS-2
1 43758U 18099A   24354.11670710  .00020661  00000-0  10322-2 0  9990
2 43758  97.5293  54.3816 0014704  44.0536 316.1866 15.17401802330746
FOX-1CLIFF (AO-95)
1 43770U 18099N   24354.10391588  .00014227  00000-0  83175-3 0  9994
2 43770  97.5199  48.4680 0013326  90.0514 270.2243 15.11908275330440
MOVE-II
1 43780U 18099Y   24353.67756100  .00049390  00000-0  15042-2 0  9997
2 43780  97.4944  56.7411 0004944  55.8239 304.3472 15.33813948331014
CORVUS-BC4
1 43767U 18099K   24353.59095106  .00007127  00000-0  49771-3 0  9994
2 43767  97.4873  41.3464 0011459  78.7132 281.5382 15.05588934330101
CZ-4B R/B
1 43656U 18081B   24353.86509932  .00000377  00000-0  12962-3 0  9991
2 43656  99.4193 216.2760 0206327  36.5190 324.9860 14.31475180321270
COSMOS 2504 [i]
1 40555U 15020D   24354.19212962  .00001498  00000-0  55778-3 0  9994
2 40555  82.5175 292.3425 0609638 315.2907  40.0587 13.60784135476059
MERIDIAN-4
1 37398U 11018A   24353.51324927  .00000236  00000-0  00000+0 0  9991
2 37398  62.1849 159.4991 7265549 259.3710  18.8222  2.00720186 99822
MERIDIAN-6
1 38995U 12063A   24352.77157408 -.00000173  00000-0  00000-0 0  9993
2 38995  64.8943  68.8720 7186170 233.7769  37.0478  2.00513592 88549
MERIDIAN-7
1 40296U 14069A   24352.83185449 -.00000006  00000-0  00000-0 0  9996
2 40296  63.5153 273.3107 6924028 273.0177  16.6045  2.00596498 74272
METOP-C
1 43689U 18087A   24354.12281274  .00000334  00000-0  17272-3 0  9991
2 43689  98.7006  51.0083 0000238 290.1628  69.9523 14.21497112317399
FENGYUN-3B
1 37214U 10059A   24354.24514187  .00000227  00000-0  14188-3 0  9998
2 37214  99.0366  24.7694 0021216 290.5495 141.2024 14.14643534730414
FENGYUN-3C
1 39260U 13052A   24354.19188942  .00000231  00000-0  13675-3 0  9992
2 39260  98.4403 344.1104 0011610 148.2635 211.9243 14.16367551581516
EWS-G1 (GOES-13)
1 29155U 06018A   24354.03785372  .00000068  00000-0  00000+0 0  9993
2 29155   3.1105  83.0688 0064631 257.1978 179.9090  0.98828778 67999
FENGYUN-2H
1 43491U 18050A   24353.92189288 -.00000125  00000-0  00000+0 0  9997
2 43491   1.6232  85.5050 0001448 172.6233 241.0706  1.00272901 24043
FENGYUN-2G
1 40367U 14090A   24353.89891159 -.00000298  00000-0  00000+0 0  9990
2 40367   4.2517  79.4150 0001382 170.8840 260.6772  1.00278272 36579
INMARSAT 4-F1
1 28628U 05009A   24353.84723779  .00000036  00000-0  00000+0 0  9992
2 28628   4.4804  41.7285 0002950 239.7652 289.5166  1.00271476 72199
INMARSAT 4-F2
1 28899U 05044A   24353.98329273 -.00000257  00000-0  00000+0 0  9993
2 28899   4.4011  43.0579 0003230 230.0477 312.4433  1.00271039 70030
INMARSAT 4-F3
1 33278U 08039A   24353.61632603 -.00000137  00000-0  00000+0 0  9998
2 33278   3.8455  28.8221 0003007 243.2790 299.5050  1.00271997 59796
INMARSAT 4A-F4 (ALPHASAT)
1 39215U 13038A   24353.88833229  .00000138  00000-0  00000+0 0  9996
2 39215   2.9126   5.9311 0002299 259.7557 166.9494  1.00271285 41801
ASTROCAST
1 43798U 18099AS  24354.12457355  .00021895  00000-0  10019-2 0  9996
2 43798  97.5113  55.4925 0009077   8.3485 351.7899 15.20498141330890
JY1SAT (JO-97)
1 43803U 18099AX  24353.66023388  .00015123  00000-0  82595-3 0  9992
2 43803  97.4945  48.7977 0009108  35.1961 324.9871 15.14379499330544
SUOMI-100
1 43804U 18099AY  24354.10909658  .00014511  00000-0  82577-3 0  9996
2 43804  97.5011  48.9043 0014459  31.3714 328.8377 15.12864226330577
GEO-KOMPSAT-2A
1 43823U 18100A   24353.98025191 -.00000338  00000-0  00000+0 0  9996
2 43823   0.0492 161.9074 0000046  48.3459 358.9652  1.00269114 22194
LADYBIRD-1
1 43836U 18102F   24353.30076545  .00239684  00000-0  15947-2 0  9993
2 43836  97.4157  78.1690 0005788 230.3442 129.7312 15.74710055333836
LADYBIRD-2
1 43837U 18102G   24353.04189741  .01084081  58396-3  22797-2 0  9993
2 43837  97.4201  81.4806 0006770 268.7206  91.3296 15.98986916334022
UWE-4
1 43880U 18111E   24353.70043223  .00019177  00000-0  94927-3 0  9992
2 43880  97.5997 258.8909 0016639  90.5489 269.7651 15.17714440325338
D-STAR ONE SPARROW
1 43881U 18111F   24353.96257873  .00024178  00000-0  11007-2 0  9993
2 43881  97.6181 262.0387 0010552 111.3451 248.8911 15.20643082325469
METEOR M2-2
1 44387U 19038A   24354.15880173  .00000341  00000-0  16803-3 0  9997
2 44387  98.8531 324.3664 0001947 120.4632 239.6739 14.24092937283710
LUCKY-7
1 44406U 19038W   24351.70569410  .16446325  26410-5  18169-3 0  9993
2 44406  97.6679   6.0836 0010327 352.1981   7.9160 16.50065787302877
MOMENTUS-X1
1 44408U 19038Y   24354.00065202  .00019743  00000-0  57546-3 0  9998
2 44408  97.7224 351.4294 0014511 179.0042 181.1232 15.35313667302155
MERIDIAN-8
1 44453U 19046A   24352.89991881  .00000127  00000-0  00000-0 0  9999
2 44453  62.7480 117.1209 6847801 273.5540  16.9005  2.00593877 39385
TAURUS-1
1 44530U 19059C   24354.19403139  .00011905  00000-0  24214-2 0  9999
2 44530  98.5899 120.2012 0010787 206.3035 153.7618 14.61197118278722
GAOFEN 12-01
1 44819U 19082A   24354.19311440  .00001117  00000-0  15083-3 0  9997
2 44819  97.8186   3.7757 0002654 126.0843 234.0616 14.80982853273458
DUCHIFAT-3
1 44854U 19089C   24354.15192328  .00034010  00000-0  11765-2 0  9991
2 44854  36.9512 356.6747 0012357 211.3515 148.6500 15.28944915276396
CAS-6 (TO-108)
1 44881U 19093C   24354.16253904  .00002411  00000-0  28938-3 0  9996
2 44881  97.8123  67.3432 0015384  78.6445 281.6497 14.84851437270480
ELEKTRO-L3
1 44903U 19095A   24353.84261322 -.00000091  00000-0  00000+0 0  9999
2 44903   0.0569 179.7824 0002264 105.1118 182.4254  1.00271684 18229
DOSAAF-85 (RS-44)
1 44909U 19096E   24354.08770586  .00000012  00000-0  90147-5 0  9999
2 44909  82.5216 341.9067 0217099 339.2031  20.0336 12.79737090232670
MERIDIAN-9
1 45254U 20015A   24354.13021910 -.00000033  00000-0  00000+0 0  9999
2 45254  65.0049  19.2053 6961335 286.3450  12.1187  2.00620626 35379
ION-MK01
1 46274U 20061C   24353.95127935  .00025700  00000-0  64535-3 0  9990
2 46274  97.2736  55.5934 0004401 132.8099 227.3518 15.39968804238319
UPMSAT-2
1 46276U 20061E   24353.16715562  .00042505  00000-0  83541-3 0  9994
2 46276  97.2721  58.5105 0001419 141.6986 218.4366 15.47171478238489
AMICAL-SAT (RS17S)
1 46287U 20061R   24353.67487930  .00343760  00000-0  16530-2 0  9997
2 46287  97.3128  64.6812 0003228 271.0659  89.0239 15.81754055238174
YARILO-1
1 46490U 20068E   24354.19868244  .00145204  00000-0  18903-2 0  9998
2 46490  97.8252 334.0003 0007982  32.1830 327.9910 15.58221453233324
YARILO-2
1 46491U 20068F   24354.22252046  .00189297  00000-0  19434-2 0  9990
2 46491  97.8112 334.0506 0008367  52.7482 307.4538 15.64272190233338
